TIANMU-1 21             
1 58662U 23208C   26172.15868836  .00007876  00000+0  23327-3 0  9992
2 58662  97.4508 291.8163 0005757 306.4635  53.6077 15.35135863138171
TIANMU-1 22             
1 58663U 23208D   26172.19012604  .00006067  00000+0  20452-3 0  9998
2 58663  97.4501 288.4431 0002821 348.3157  11.8018 15.31104530137946
TIANMU-1 15             
1 58700U 24004A   26172.16138002  .00004486  00000+0  17175-3 0  9994
2 58700  97.4674 358.3524 0006294 347.8230  12.2855 15.27057405136387
TIANMU-1 16             
1 58701U 24004B   26172.21687223  .00004547  00000+0  17552-3 0  9992
2 58701  97.4622 357.6402 0005422 353.5452   6.5716 15.26782890136395
TIANMU-1 17             
1 58702U 24004C   26172.20232841  .00004679  00000+0  18052-3 0  9996
2 58702  97.4649 358.1121 0005103   0.7241 359.4004 15.26781938136383
TIANMU-1 18             
1 58703U 24004D   26172.17804366  .00004261  00000+0  16342-3 0  9997
2 58703  97.4666 358.3458 0003636   1.6546 358.4704 15.27038220136381
INSAT-3DS               
1 58990U 24033A   26171.40823205 -.00000160  00000+0  00000+0 0  9990
2 58990   0.0479 106.3313 0001171 331.3573  59.9873  1.00271082 47109
METEOR-M2 4             
1 59051U 24039A   26172.19292928  .00000007  00000+0  22933-4 0  9997
2 59051  98.7012 131.4407 0007521 150.0091 210.1519 14.22429877119837
GOES 19                 
1 60133U 24119A   26171.37127980 -.00000253  00000+0  00000+0 0  9993
2 60133   0.0015 112.2371 0000407  49.5773 165.2311  1.00270517  6990
MTG-S1                  
1 64723U 25143A   26171.39155049 -.00000005  00000+0  00000+0 0  9994
2 64723   0.6001 339.7327 0000829 294.1194 133.2187  1.00399694  3452
METOP-SGA1              
1 65159U 25172A   26167.15332899  .00000049  00000+0  42000-4 0  9997
2 65159  98.6644 226.8998 0000902  93.8213 266.3067 14.21509720 43644
FENGYUN 3H              
1 65815U 25219A   26171.42343481  .00000033  00000+0  36111-4 0  9991
2 65815  98.6768 112.1297 0001572  74.5092 285.6258 14.19920896 37843
