OBJECT_NAME,OBJECT_ID,EPOCH,MEAN_MOTION,ECCENTRICITY,INCLINATION,RA_OF_ASC_NODE,ARG_OF_PERICENTER,MEAN_ANOMALY,EPHEMERIS_TYPE,CLASSIFICATION_TYPE,NORAD_CAT_ID,ELEMENT_SET_NO,REV_AT_EPOCH,BSTAR,MEAN_MOTION_DOT,MEAN_MOTION_DDOT
TIANMU-1 21,2023-208C,2026-06-21T03:48:30.674304,15.35135863,.0005757,97.4508,291.8163,306.4635,53.6077,0,U,58662,999,13817,.23327E-3,.7876E-4,0
TIANMU-1 22,2023-208D,2026-06-21T04:33:46.889856,15.31104530,.0002821,97.4501,288.4431,348.3157,11.8018,0,U,58663,999,13794,.20452E-3,.6067E-4,0
TIANMU-1 15,2024-004A,2026-06-21T03:52:23.233728,15.27057405,.0006294,97.4674,358.3524,347.8230,12.2855,0,U,58700,999,13638,.17175E-3,.4486E-4,0
TIANMU-1 16,2024-004B,2026-06-21T05:12:17.760672,15.26782890,.0005422,97.4622,357.6402,353.5452,6.5716,0,U,58701,999,13639,.17552E-3,.4547E-4,0
TIANMU-1 17,2024-004C,2026-06-21T04:51:21.174624,15.26781938,.0005103,97.4649,358.1121,0.7241,359.4004,0,U,58702,999,13638,.18052E-3,.4679E-4,0
TIANMU-1 18,2024-004D,2026-06-21T04:16:22.972224,15.27038220,.0003636,97.4666,358.3458,1.6546,358.4704,0,U,58703,999,13638,.16342E-3,.4261E-4,0
INSAT-3DS,2024-033A,2026-06-20T09:47:51.249120,1.00271082,.0001171,0.0479,106.3313,331.3573,59.9873,0,U,58990,999,4710,0,-.16E-5,0
METEOR-M2 4,2024-039A,2026-06-21T04:37:49.089792,14.22429877,.0007521,98.7012,131.4407,150.0091,210.1519,0,U,59051,999,11983,.22933E-4,.7E-7,0
GOES 19,2024-119A,2026-06-20T08:54:38.574720,1.00270517,.0000407,0.0015,112.2371,49.5773,165.2311,0,U,60133,999,699,0,-.253E-5,0
MTG-S1,2025-143A,2026-06-20T09:23:49.962336,1.00399694,.0000829,0.6001,339.7327,294.1194,133.2187,0,U,64723,999,345,0,-.5E-7,0
METOP-SGA1,2025-172A,2026-06-16T03:40:47.624736,14.21509720,.0000902,98.6644,226.8998,93.8213,266.3067,0,U,65159,999,4364,.41999845E-4,.49E-6,0
FENGYUN 3H,2025-219A,2026-06-20T10:09:44.767584,14.19920896,.0001572,98.6768,112.1297,74.5092,285.6258,0,U,65815,999,3784,.36111E-4,.33E-6,0
